NORAD_CAT_ID,OBJECT_NAME,OBJECT_TYPE,EPOCH,MEAN_MOTION,ECCENTRICITY,INCLINATION,RA_OF_ASC_NODE,ARG_OF_PERICENTER,MEAN_ANOMALY,BSTAR,MEAN_MOTION_DOT,MEAN_MOTION_DDOT,TLE_LINE0,TLE_LINE1,TLE_LINE2,SEMIMAJOR_AXIS,PERIOD,APOGEE,PERIGEE,DECAYED
54071.0,STARLINK-5168,PAYLOAD,2023-04-03 07:00:35,15.08834984,0.0001285,53.218,113.508,89.3818,270.7322,9.0046e-05,1.145e-05,0.0,0 STARLINK-5168,1 54071U 22136W   23093.29207552  .00001145  00000-0  90046-4 0  9994,2 54071  53.2180 113.5080 0001285  89.3818 270.7322 15.08834984 25100,6917.896,95.438,540.65,538.872,0.0
54071.0,STARLINK-5168,PAYLOAD,2023-04-03 18:08:17,15.08839078,0.0001487,53.2196,111.4282,89.5673,270.549,0.00012331,1.675e-05,0.0,0 STARLINK-5168,1 54071U 22136W   23093.75575315  .00001675  00000-0  12331-3 0  9998,2 54071  53.2196 111.4282 0001487  89.5673 270.5490 15.08839078 25173,6917.883,95.438,540.777,538.72,0.0
54071.0,STARLINK-5168,PAYLOAD,2023-04-04 06:51:20,15.08874305,0.0001069,53.2182,109.0475,89.9865,270.1249,5.0289e-05,5.13e-06,0.0,0 STARLINK-5168,1 54071U 22136W   23094.28564913  .00000513  00000-0  50289-4 0  9994,2 54071  53.2182 109.0475 0001069  89.9865 270.1249 15.08874305 25730,6917.776,95.435,540.38,538.901,0.0
54071.0,STARLINK-5168,PAYLOAD,2023-04-04 08:26:43,15.08854431,0.0001211,53.218,108.7501,92.1992,267.9139,0.00036714,5.562e-05,0.0,0 STARLINK-5168,1 54071U 22136W   23094.35189261  .00005562  00000-0  36714-3 0  9996,2 54071  53.2180 108.7501 0001211  92.1992 267.9139 15.08854431 25741,6917.836,95.437,540.539,538.864,0.0
54071.0,STARLINK-5168,PAYLOAD,2023-04-05 05:06:46,15.08833161,0.0001121,53.2186,104.8849,109.256,250.8553,-3.9388e-06,-3.5e-06,0.0,0 STARLINK-5168,1 54071U 22136W   23095.21303663 -.00000350  00000-0 -39388-5 0  9990,2 54071  53.2186 104.8849 0001121 109.2560 250.8553 15.08833161 25872,6917.901,95.438,540.542,538.991,0.0
54071.0,STARLINK-5168,PAYLOAD,2023-04-05 09:52:56,15.08828023,0.0001126,53.2187,103.9922,81.2279,278.8841,-5.2455e-05,-1.122e-05,0.0,0 STARLINK-5168,1 54071U 22136W   23095.41176268 -.00001122  00000-0 -52455-4 0  9998,2 54071  53.2187 103.9922 0001126  81.2279 278.8841 15.08828023 25428,6917.917,95.438,540.561,539.003,0.0
54071.0,STARLINK-5168,PAYLOAD,2023-04-05 17:49:51,15.08832506,0.0001152,53.2196,102.5048,80.151,279.9612,-3.3435e-05,-8.2e-06,0.0,0 STARLINK-5168,1 54071U 22136W   23095.74296080 -.00000820  00000-0 -33435-4 0  9990,2 54071  53.2196 102.5048 0001152  80.1510 279.9612 15.08832506 25471,6917.903,95.438,540.565,538.971,0.0
54071.0,STARLINK-5168,PAYLOAD,2023-04-06 06:32:56,15.08846876,9.55e-05,53.2183,100.1276,66.4899,293.6193,-6.1611e-05,-1.268e-05,0.0,0 STARLINK-5168,1 54071U 22136W   23096.27287197 -.00001268  00000-0 -61611-4 0  9992,2 54071  53.2183 100.1276 0000955  66.4899 293.6193 15.08846876 26036,6917.859,95.437,540.385,539.064,0.0
54071.0,STARLINK-5168,PAYLOAD,2023-04-06 17:40:37,15.08851971,9.38e-05,53.2187,98.0454,79.2956,280.8142,-2.385e-05,-6.67e-06,0.0,0 STARLINK-5168,1 54071U 22136W   23096.73654543 -.00000667  00000-0 -23850-4 0  9991,2 54071  53.2187  98.0454 0000938  79.2956 280.8142 15.08851971 25628,6917.844,95.437,540.358,539.06,0.0
54071.0,STARLINK-5168,PAYLOAD,2023-04-07 06:23:43,15.08846802,0.0001118,53.2174,95.6661,68.6049,291.5062,0.00044228,6.759e-05,0.0,0 STARLINK-5168,1 54071U 22136W   23097.26647499  .00006759  00000-0  44228-3 0  9999,2 54071  53.2174  95.6661 0001118  68.6049 291.5062 15.08846802 25709,6917.86,95.437,540.498,538.951,0.0
54071.0,STARLINK-5168,PAYLOAD,2023-04-08 06:14:30,15.08847327,0.0001136,53.2166,91.2053,74.0195,286.0922,0.00016362,2.318e-05,0.0,0 STARLINK-5168,1 54071U 22136W   23098.26007326  .00002318  00000-0  16362-3 0  9994,2 54071  53.2166  91.2053 0001136  74.0195 286.0922 15.08847327 26337,6917.858,95.437,540.509,538.937,0.0
54071.0,STARLINK-5168,PAYLOAD,2023-04-08 09:25:16,15.08849382,0.0001172,53.2174,90.6112,75.6352,284.477,0.00019152,2.762e-05,0.0,0 STARLINK-5168,1 54071U 22136W   23098.39255238  .00002762  00000-0  19152-3 0  9998,2 54071  53.2174  90.6112 0001172  75.6352 284.4770 15.08849382 25871,6917.852,95.437,540.527,538.906,0.0
54071.0,STARLINK-5168,PAYLOAD,2023-04-09 06:05:17,15.08843697,0.0001088,53.2174,86.7457,79.8443,280.2672,9.9653e-05,1.299e-05,0.0,0 STARLINK-5168,1 54071U 22136W   23099.25367346  .00001299  00000-0  99653-4 0  9997,2 54071  53.2174  86.7457 0001088  79.8443 280.2672 15.08843697 26488,6917.869,95.437,540.487,538.981,0.0
54071.0,STARLINK-5168,PAYLOAD,2023-04-09 09:16:03,15.08840406,0.0001281,53.2176,86.1499,79.1957,280.9179,0.00016036,2.265e-05,0.0,0 STARLINK-5168,1 54071U 22136W   23099.38615408  .00002265  00000-0  16036-3 0  9993,2 54071  53.2176  86.1499 0001281  79.1957 280.9179 15.08840406 26022,6917.879,95.438,540.63,538.858,0.0
54071.0,STARLINK-5168,PAYLOAD,2023-04-09 15:37:36,15.08838707,0.0001154,53.2172,84.961,80.5926,279.5197,4.3864e-05,4.1e-06,0.0,0 STARLINK-5168,1 54071U 22136W   23099.65111616  .00000410  00000-0  43864-4 0  9995,2 54071  53.2172  84.9610 0001154  80.5926 279.5197 15.08838707 26069,6917.884,95.438,540.548,538.951,0.0
54071.0,STARLINK-5168,PAYLOAD,2023-04-10 07:31:27,15.08841903,0.0001158,53.2176,81.9877,83.3379,276.7745,0.00014536,2.026e-05,0.0,0 STARLINK-5168,1 54071U 22136W   23100.31351706  .00002026  00000-0  14536-3 0  9995,2 54071  53.2176  81.9877 0001158  83.3379 276.7745 15.08841903 26646,6917.875,95.437,540.541,538.938,0.0
54071.0,STARLINK-5168,PAYLOAD,2023-04-10 15:28:23,15.08843138,0.0001173,53.2177,80.5011,84.7099,275.4027,0.0001675,2.379e-05,0.0,0 STARLINK-5168,1 54071U 22136W   23100.64471692  .00002379  00000-0  16750-3 0  9999,2 54071  53.2177  80.5011 0001173  84.7099 275.4027 15.08843138 26217,6917.871,95.437,540.547,538.924,0.0
54071.0,STARLINK-5168,PAYLOAD,2023-04-11 07:22:15,15.08841706,0.0001256,53.2183,77.5274,90.5248,269.5889,0.00011813,1.593e-05,0.0,0 STARLINK-5168,1 54071U 22136W   23101.30711881  .00001593  00000-0  11813-3 0  9992,2 54071  53.2183  77.5274 0001256  90.5248 269.5889 15.08841706 26314,6917.875,95.437,540.609,538.871,0.0
54071.0,STARLINK-5168,PAYLOAD,2023-04-11 21:40:43,15.08834778,9.28e-05,53.2187,74.853,112.0579,248.0511,0.00010456,1.377e-05,0.0,0 STARLINK-5168,1 54071U 22136W   23101.90328275  .00001377  00000-0  10456-3 0  9991,2 54071  53.2187  74.8530 0000928 112.0579 248.0511 15.08834778 26400,6917.896,95.438,540.403,539.119,0.0
54071.0,STARLINK-5168,PAYLOAD,2023-04-12 08:48:26,15.08820421,0.000149,53.2181,72.7695,90.128,269.9882,0.00060639,9.371e-05,0.0,0 STARLINK-5168,1 54071U 22136W   23102.36697403  .00009371  00000-0  60639-3 0  9994,2 54071  53.2181  72.7695 0001490  90.1280 269.9882 15.08820421 26956,6917.94,95.439,540.836,538.774,0.0
54071.0,STARLINK-5168,PAYLOAD,2023-04-12 15:09:58,15.08837295,0.0001322,53.2184,71.58,83.4305,276.6838,4.7335e-05,4.65e-06,0.0,0 STARLINK-5168,1 54071U 22136W   23102.63192781  .00000465  00000-0  47335-4 0  9997,2 54071  53.2184  71.5800 0001322  83.4305 276.6838 15.08837295 26998,6917.889,95.438,540.668,538.839,0.0
54071.0,STARLINK-5168,PAYLOAD,2023-04-13 07:03:49,15.0884406,0.0001364,53.2182,68.6065,85.7817,274.3331,0.00010762,1.425e-05,0.0,0 STARLINK-5168,1 54071U 22136W   23103.29432374  .00001425  00000-0  10762-3 0  9995,2 54071  53.2182  68.6065 0001364  85.7817 274.3331 15.08844060 26615,6917.868,95.437,540.677,538.789,0.0
54071.0,STARLINK-5168,PAYLOAD,2023-04-13 15:00:45,15.08844533,0.0001353,53.2185,67.12,86.8569,273.2578,0.00012166,1.649e-05,0.0,0 STARLINK-5168,1 54071U 22136W   23103.62552319  .00001649  00000-0  12166-3 0  9992,2 54071  53.2185  67.1200 0001353  86.8569 273.2578 15.08844533 27142,6917.867,95.437,540.668,538.796,0.0
54071.0,STARLINK-5168,PAYLOAD,2023-04-14 06:54:36,15.0885116,0.0001262,53.2181,64.1453,95.6049,264.5087,0.00016683,2.369e-05,0.0,0 STARLINK-5168,1 54071U 22136W   23104.28791703  .00002369  00000-0  16683-3 0  9995,2 54071  53.2181  64.1453 0001262  95.6049 264.5087 15.08851160 26764,6917.846,95.437,540.584,538.838,0.0
54071.0,STARLINK-5168,PAYLOAD,2023-04-15 06:45:23,15.08849476,0.0001227,53.2183,59.684,93.8673,266.246,0.00013103,1.799e-05,0.0,0 STARLINK-5168,1 54071U 22136W   23105.28151959  .00001799  00000-0  13103-3 0  9999,2 54071  53.2183  59.6840 0001227  93.8673 266.2460 15.08849476 26917,6917.851,95.437,540.565,538.868,0.0
54071.0,STARLINK-5168,PAYLOAD,2023-04-16 03:25:24,15.0884455,8.15e-05,53.2169,55.821,107.5259,252.5822,0.00011113,1.482e-05,0.0,0 STARLINK-5168,1 54071U 22136W   23106.14264138  .00001482  00000-0  11113-3 0  9997,2 54071  53.2169  55.8210 0000815 107.5259 252.5822 15.08844550 27521,6917.866,95.437,540.295,539.168,0.0
54071.0,STARLINK-5168,PAYLOAD,2023-04-16 06:36:10,15.08849893,0.0001068,53.2172,55.2251,106.9865,253.1245,9.9959e-05,1.304e-05,0.0,0 STARLINK-5168,1 54071U 22136W   23106.27511910  .00001304  00000-0  99959-4 0  9992,2 54071  53.2172  55.2251 0001068 106.9865 253.1245 15.08849893 27061,6917.85,95.437,540.454,538.976,0.0
54071.0,STARLINK-5168,PAYLOAD,2023-04-16 20:54:39,15.08836357,0.0001469,53.2185,52.5476,104.6441,255.4714,2.9917e-05,1.88e-06,0.0,0 STARLINK-5168,1 54071U 22136W   23106.87128685  .00000188  00000-0  29917-4 0  9997,2 54071  53.2185  52.5476 0001469 104.6441 255.4714 15.08836357 27634,6917.892,95.438,540.773,538.74,0.0
54071.0,STARLINK-5168,PAYLOAD,2023-04-17 06:26:57,15.08842674,9.67e-05,53.2175,50.7653,97.1528,262.9574,0.00026615,3.951e-05,0.0,0 STARLINK-5168,1 54071U 22136W   23107.26872580  .00003951  00000-0  26615-3 0  9993,2 54071  53.2175  50.7653 0000967  97.1528 262.9574 15.08842674 27214,6917.872,95.437,540.406,539.068,0.0
54071.0,STARLINK-5168,PAYLOAD,2023-04-17 20:45:26,15.0883714,9.65e-05,53.2178,48.0882,97.471,262.6392,0.00011123,1.483e-05,0.0,0 STARLINK-5168,1 54071U 22136W   23107.86489004  .00001483  00000-0  11123-3 0  9990,2 54071  53.2178  48.0882 0000965  97.4710 262.6392 15.08837140 27302,6917.889,95.438,540.422,539.087,0.0
